{"type": "FeatureCollection", "features": [{"type": "Feature", "properties": {"norad_id": 50032, "name": "COSMOS 1408 DEB", "group": "cosmos-1408-debris", "lat": 79.48267364247474, "lon": -173.4259332228107, "alt_km": 420.7884325351961, "timestamp": "2025-12-19T18:58:41.858450+00:00", "meta": {"OBJECT_NAME": "COSMOS 1408 DEB", "OBJECT_ID": "1982-092RU", "EPOCH": "2025-12-18T14:35:30.154560", "MEAN_MOTION": 15.45751534, "ECCENTRICITY": 0.00158163, "INCLINATION": 82.5642, "RA_OF_ASC_NODE": 52.4947, "ARG_OF_PERICENTER": 186.4952, "MEAN_ANOMALY": 173.6095, "EPHEMERIS_TYPE": 0, "CLASSIFICATION_TYPE": "U", "NORAD_CAT_ID": 50032, "ELEMENT_SET_NO": 999, "REV_AT_EPOCH": 22694, "BSTAR": 8.736421e-05, "MEAN_MOTION_DOT": 4.285e-05, "MEAN_MOTION_DDOT": 0}, "tle": {"line1": "1 50032U 82092RU  25352.60798790  .00004285  00000+0  87364-4 0  9994", "line2": "2 50032  82.5642  52.4947 0015816 186.4952 173.6095 15.45751534226940"}}, "geometry": {"type": "Point", "coordinates": [-173.4259332228107, 79.48267364247474]}}, {"type": "Feature", "properties": {"norad_id": 50058, "name": "COSMOS 1408 DEB", "group": "cosmos-1408-debris", "lat": 49.75720551720292, "lon": 70.77824422821507, "alt_km": 360.18398178979896, "timestamp": "2025-12-19T18:58:41.858470+00:00", "meta": {"OBJECT_NAME": "COSMOS 1408 DEB", "OBJECT_ID": "1982-092SW", "EPOCH": "2025-12-18T13:35:52.596672", "MEAN_MOTION": 15.6444692, "ECCENTRICITY": 0.00161966, "INCLINATION": 82.6131, "RA_OF_ASC_NODE": 63.2424, "ARG_OF_PERICENTER": 78.9589, "MEAN_ANOMALY": 281.3491, "EPHEMERIS_TYPE": 0, "CLASSIFICATION_TYPE": "U", "NORAD_CAT_ID": 50058, "ELEMENT_SET_NO": 999, "REV_AT_EPOCH": 22895, "BSTAR": 0.00028591151, "MEAN_MOTION_DOT": 0.00027692, "MEAN_MOTION_DDOT": 0}, "tle": {"line1": "1 50058U 82092SW  25352.56658098  .00027692  00000+0  28591-3 0  9996", "line2": "2 50058  82.6131  63.2424 0016196  78.9589 281.3491 15.64446920228956"}}, "geometry": {"type": "Point", "coordinates": [70.77824422821507, 49.75720551720292]}}, {"type": "Feature", "properties": {"norad_id": 50404, "name": "COSMOS 1408 DEB", "group": "cosmos-1408-debris", "lat": -24.87467152725559, "lon": -155.8335218830675, "alt_km": 636.840963339655, "timestamp": "2025-12-19T18:58:41.858483+00:00", "meta": {"OBJECT_NAME": "COSMOS 1408 DEB", "OBJECT_ID": "1982-092ADS", "EPOCH": "2025-12-18T14:33:17.055360", "MEAN_MOTION": 15.14678102, "ECCENTRICITY": 0.01696438, "INCLINATION": 82.2037, "RA_OF_ASC_NODE": 209.023, "ARG_OF_PERICENTER": 178.8165, "MEAN_ANOMALY": 181.3506, "EPHEMERIS_TYPE": 0, "CLASSIFICATION_TYPE": "U", "NORAD_CAT_ID": 50404, "ELEMENT_SET_NO": 999, "REV_AT_EPOCH": 21282, "BSTAR": 0.0025991893, "MEAN_MOTION_DOT": 0.00069718, "MEAN_MOTION_DDOT": 0}, "tle": {"line1": "1 50404U 82092ADS 25352.60644740  .00069718  00000+0  25992-2 0  9991", "line2": "2 50404  82.2037 209.0230 0169643 178.8165 181.3506 15.14678102212822"}}, "geometry": {"type": "Point", "coordinates": [-155.8335218830675, -24.87467152725559]}}, {"type": "Feature", "properties": {"norad_id": 50621, "name": "COSMOS 1408 DEB", "group": "cosmos-1408-debris", "lat": -57.10399248531862, "lon": -101.5210313085088, "alt_km": 410.4426249789185, "timestamp": "2025-12-19T18:58:41.858494+00:00", "meta": {"OBJECT_NAME": "COSMOS 1408 DEB", "OBJECT_ID": "1982-092ALR", "EPOCH": "2025-12-19T05:37:22.437408", "MEAN_MOTION": 15.56987521, "ECCENTRICITY": 0.00290662, "INCLINATION": 82.5701, "RA_OF_ASC_NODE": 67.4189, "ARG_OF_PERICENTER": 128.8884, "MEAN_ANOMALY": 231.4971, "EPHEMERIS_TYPE": 0, "CLASSIFICATION_TYPE": "U", "NORAD_CAT_ID": 50621, "ELEMENT_SET_NO": 999, "REV_AT_EPOCH": 22351, "BSTAR": 0.00027431158, "MEAN_MOTION_DOT": 0.00020232, "MEAN_MOTION_DDOT": 0}, "tle": {"line1": "1 50621U 82092ALR 25353.23428747  .00020232  00000+0  27431-3 0  9998", "line2": "2 50621  82.5701  67.4189 0029066 128.8884 231.4971 15.56987521223515"}}, "geometry": {"type": "Point", "coordinates": [-101.5210313085088, -57.10399248531862]}}]}